0 OPS 4682 DEB
1 14048U 65027K   13282.91405672  .00000751  00000-0  25601-2 0  7893
2 14048 090.2924 256.5029 0012971 262.5834 155.1218 12.97510005452738
0 OPS 4682 DEB
1 14048U 65027K   13285.40280714  .00000120  00000-0  38814-3 0  7901
2 14048 090.2928 256.5695 0012926 255.0775 261.1086 12.97518520453059
0 OPS 4682 DEB
1 14048U 65027K   13289.91905162 -.00000195  00000-0 -69534-3 0  7910
2 14048 090.2973 256.6853 0012704 242.9211 117.0421 12.97517428453632
0 OPS 4682 DEB
1 14048U 65027K   13291.16536146 -.00000204  00000-0 -72574-3 0  7922
2 14048 090.2940 256.7252 0012795 237.5594 180.7446 12.97519005453800
0 OPS 4682 DEB
1 14048U 65027K   13293.17020984  .00000334  00000-0  11252-2 0  7931
2 14048 090.2945 256.7792 0012868 231.5400 186.2773 12.97512809454063
0 OPS 4682 DEB
1 14048U 65027K   13296.17772171  .00000916  00000-0  31280-2 0  7946
2 14048 090.2948 256.8610 0012906 222.5755 195.5919 12.97512646454459
